{
  "norad_id": 51773,
  "name": "STARLINK-3624",
  "history": [
    {
      "epoch": "2026-03-28T18:00:39.737088Z",
      "apogee_km": 540.5741642527255,
      "perigee_km": 538.8723706269348,
      "latitude_deg": 2.1002115408045672e-05,
      "longitude_deg": 157.18972149758036,
      "height_km": 540.5035265041197,
      "semi_major_axis_km": 6917.86026743983,
      "eccentricity": 0.000123,
      "inclination_deg": 53.2169,
      "raan_deg": 253.5217,
      "arg_perigee_deg": 82.1925,
      "mean_anomaly_deg": 277.9207,
      "mean_motion_rev_day": 15.08846583
    }
  ]
}